CCSDS_OMM_VERS = 2.0
CREATION_DATE  = 
ORIGINATOR     = 

OBJECT_NAME    = RSP-03
OBJECT_ID      = 1998-067XL
CENTER_NAME    = EARTH
REF_FRAME      = TEME
TIME_SYSTEM    = UTC
MEAN_ELEMENT_THEORY = SGP/SGP4

EPOCH          = 2026-02-05T20:27:18.885888
MEAN_MOTION    = 15.98194787
ECCENTRICITY   = .00062093
INCLINATION    = 51.6174
RA_OF_ASC_NODE = 211.1920
ARG_OF_PERICENTER = 275.2495
MEAN_ANOMALY   = 84.7805

EPHEMERIS_TYPE = 0
CLASSIFICATION_TYPE = U
NORAD_CAT_ID   = 65732
ELEMENT_SET_NO = 999
REV_AT_EPOCH   = 2187
BSTAR          = .16153697E-2
MEAN_MOTION_DOT = .764317E-2
MEAN_MOTION_DDOT = .27253312E-3

CCSDS_OMM_VERS = 2.0
CREATION_DATE  = 
ORIGINATOR     = 

OBJECT_NAME    = YOTSUBA-KULOVER
OBJECT_ID      = 1998-067XN
CENTER_NAME    = EARTH
REF_FRAME      = TEME
TIME_SYSTEM    = UTC
MEAN_ELEMENT_THEORY = SGP/SGP4

EPOCH          = 2026-02-05T17:20:06.198144
MEAN_MOTION    = 15.70112599
ECCENTRICITY   = .00041195
INCLINATION    = 51.6244
RA_OF_ASC_NODE = 221.6848
ARG_OF_PERICENTER = 232.1439
MEAN_ANOMALY   = 127.9186

EPHEMERIS_TYPE = 0
CLASSIFICATION_TYPE = U
NORAD_CAT_ID   = 65941
ELEMENT_SET_NO = 999
REV_AT_EPOCH   = 1846
BSTAR          = .12468237E-2
MEAN_MOTION_DOT = .156224E-2
MEAN_MOTION_DDOT = 0

CCSDS_OMM_VERS = 2.0
CREATION_DATE  = 
ORIGINATOR     = 

OBJECT_NAME    = BOTAN
OBJECT_ID      = 1998-067XP
CENTER_NAME    = EARTH
REF_FRAME      = TEME
TIME_SYSTEM    = UTC
MEAN_ELEMENT_THEORY = SGP/SGP4

EPOCH          = 2026-02-05T20:59:00.453984
MEAN_MOTION    = 15.82653618
ECCENTRICITY   = .00056606
INCLINATION    = 51.6190
RA_OF_ASC_NODE = 217.4098
ARG_OF_PERICENTER = 259.2097
MEAN_ANOMALY   = 100.8268

EPHEMERIS_TYPE = 0
CLASSIFICATION_TYPE = U
NORAD_CAT_ID   = 65942
ELEMENT_SET_NO = 999
REV_AT_EPOCH   = 1853
BSTAR          = .16888645E-2
MEAN_MOTION_DOT = .378529E-2
MEAN_MOTION_DDOT = 0

CCSDS_OMM_VERS = 2.0
CREATION_DATE  = 
ORIGINATOR     = 

OBJECT_NAME    = E-KAGAKU-1
OBJECT_ID      = 1998-067XQ
CENTER_NAME    = EARTH
REF_FRAME      = TEME
TIME_SYSTEM    = UTC
MEAN_ELEMENT_THEORY = SGP/SGP4

EPOCH          = 2026-02-05T18:52:38.409024
MEAN_MOTION    = 15.70041608
ECCENTRICITY   = .00033789
INCLINATION    = 51.6264
RA_OF_ASC_NODE = 221.3745
ARG_OF_PERICENTER = 248.6455
MEAN_ANOMALY   = 111.4182

EPHEMERIS_TYPE = 0
CLASSIFICATION_TYPE = U
NORAD_CAT_ID   = 65943
ELEMENT_SET_NO = 999
REV_AT_EPOCH   = 1847
BSTAR          = .12365614E-2
MEAN_MOTION_DOT = .154423E-2
MEAN_MOTION_DDOT = 0

CCSDS_OMM_VERS = 2.0
CREATION_DATE  = 
ORIGINATOR     = 

OBJECT_NAME    = HRC MONOBLOCK CAMERA
OBJECT_ID      = 1998-067XR
CENTER_NAME    = EARTH
REF_FRAME      = TEME
TIME_SYSTEM    = UTC
MEAN_ELEMENT_THEORY = SGP/SGP4

EPOCH          = 2026-02-05T22:28:45.782400
MEAN_MOTION    = 15.58940437
ECCENTRICITY   = .00005932
INCLINATION    = 51.6280
RA_OF_ASC_NODE = 225.3779
ARG_OF_PERICENTER = 352.6283
MEAN_ANOMALY   = 7.4701

EPHEMERIS_TYPE = 0
CLASSIFICATION_TYPE = U
NORAD_CAT_ID   = 66052
ELEMENT_SET_NO = 999
REV_AT_EPOCH   = 1743
BSTAR          = .75194916E-3
MEAN_MOTION_DOT = .59464E-3
MEAN_MOTION_DDOT = 0

CCSDS_OMM_VERS = 2.0
CREATION_DATE  = 
ORIGINATOR     = 

OBJECT_NAME    = HTV-X1
OBJECT_ID      = 2025-241A
CENTER_NAME    = EARTH
REF_FRAME      = TEME
TIME_SYSTEM    = UTC
MEAN_ELEMENT_THEORY = SGP/SGP4

EPOCH          = 2026-02-05T21:20:42.308448
MEAN_MOTION    = 15.48424825
ECCENTRICITY   = .0011141
INCLINATION    = 51.6315
RA_OF_ASC_NODE = 229.5575
ARG_OF_PERICENTER = 68.7050
MEAN_ANOMALY   = 291.5126

EPHEMERIS_TYPE = 0
CLASSIFICATION_TYPE = U
NORAD_CAT_ID   = 66174
ELEMENT_SET_NO = 999
REV_AT_EPOCH   = 51
BSTAR          = .25263839E-3
MEAN_MOTION_DOT = .13241E-3
MEAN_MOTION_DDOT = 0

CCSDS_OMM_VERS = 2.0
CREATION_DATE  = 
ORIGINATOR     = 

OBJECT_NAME    = SZ-21 MODULE
OBJECT_ID      = 2025-246C
CENTER_NAME    = EARTH
REF_FRAME      = TEME
TIME_SYSTEM    = UTC
MEAN_ELEMENT_THEORY = SGP/SGP4

EPOCH          = 2026-02-05T09:13:51.577536
MEAN_MOTION    = 15.66107693
ECCENTRICITY   = .00030808
INCLINATION    = 41.4761
RA_OF_ASC_NODE = 41.8476
ARG_OF_PERICENTER = 276.8900
MEAN_ANOMALY   = 83.1590

EPHEMERIS_TYPE = 0
CLASSIFICATION_TYPE = U
NORAD_CAT_ID   = 66515
ELEMENT_SET_NO = 999
REV_AT_EPOCH   = 1300
BSTAR          = .42094529E-3
MEAN_MOTION_DOT = .44396E-3
MEAN_MOTION_DDOT = 0

CCSDS_OMM_VERS = 2.0
CREATION_DATE  = 
ORIGINATOR     = 

OBJECT_NAME    = SHENZHOU-22
OBJECT_ID      = 2025-272A
CENTER_NAME    = EARTH
REF_FRAME      = TEME
TIME_SYSTEM    = UTC
MEAN_ELEMENT_THEORY = SGP/SGP4

EPOCH          = 2026-02-05T23:03:54.500544
MEAN_MOTION    = 15.59269084
ECCENTRICITY   = .00054808
INCLINATION    = 41.4677
RA_OF_ASC_NODE = 41.0110
ARG_OF_PERICENTER = 9.4748
MEAN_ANOMALY   = 350.6192

EPHEMERIS_TYPE = 0
CLASSIFICATION_TYPE = U
NORAD_CAT_ID   = 66645
ELEMENT_SET_NO = 999
REV_AT_EPOCH   = 26764
BSTAR          = .41144981E-3
MEAN_MOTION_DOT = .33104E-3
MEAN_MOTION_DDOT = 0

CCSDS_OMM_VERS = 2.0
CREATION_DATE  = 
ORIGINATOR     = 

OBJECT_NAME    = SOYUZ-MS 28
OBJECT_ID      = 2025-275A
CENTER_NAME    = EARTH
REF_FRAME      = TEME
TIME_SYSTEM    = UTC
MEAN_ELEMENT_THEORY = SGP/SGP4

EPOCH          = 2026-02-05T21:20:42.308448
MEAN_MOTION    = 15.48424825
ECCENTRICITY   = .0011141
INCLINATION    = 51.6315
RA_OF_ASC_NODE = 229.5575
ARG_OF_PERICENTER = 68.7050
MEAN_ANOMALY   = 291.5126

EPHEMERIS_TYPE = 0
CLASSIFICATION_TYPE = U
NORAD_CAT_ID   = 66664
ELEMENT_SET_NO = 999
REV_AT_EPOCH   = 128
BSTAR          = .25263839E-3
MEAN_MOTION_DOT = .13241E-3
MEAN_MOTION_DDOT = 0

CCSDS_OMM_VERS = 2.0
CREATION_DATE  = 
ORIGINATOR     = 

OBJECT_NAME    = DUPLEX
OBJECT_ID      = 1998-067XS
CENTER_NAME    = EARTH
REF_FRAME      = TEME
TIME_SYSTEM    = UTC
MEAN_ELEMENT_THEORY = SGP/SGP4

EPOCH          = 2026-02-05T20:10:21.812736
MEAN_MOTION    = 15.53978264
ECCENTRICITY   = .00014318
INCLINATION    = 51.6287
RA_OF_ASC_NODE = 228.4848
ARG_OF_PERICENTER = 80.8466
MEAN_ANOMALY   = 279.2686

EPHEMERIS_TYPE = 0
CLASSIFICATION_TYPE = U
NORAD_CAT_ID   = 66906
ELEMENT_SET_NO = 999
REV_AT_EPOCH   = 1017
BSTAR          = .67306003E-3
MEAN_MOTION_DOT = .44079E-3
MEAN_MOTION_DDOT = 0

CCSDS_OMM_VERS = 2.0
CREATION_DATE  = 
ORIGINATOR     = 

OBJECT_NAME    = 1998-067XT
OBJECT_ID      = 1998-067XT
CENTER_NAME    = EARTH
REF_FRAME      = TEME
TIME_SYSTEM    = UTC
MEAN_ELEMENT_THEORY = SGP/SGP4

EPOCH          = 2026-02-05T18:39:57.909312
MEAN_MOTION    = 15.60974670
ECCENTRICITY   = .00022119
INCLINATION    = 51.6265
RA_OF_ASC_NODE = 227.3140
ARG_OF_PERICENTER = 199.3308
MEAN_ANOMALY   = 160.7602

EPHEMERIS_TYPE = 0
CLASSIFICATION_TYPE = U
NORAD_CAT_ID   = 66907
ELEMENT_SET_NO = 999
REV_AT_EPOCH   = 1018
BSTAR          = .15033633E-2
MEAN_MOTION_DOT = .130219E-2
MEAN_MOTION_DDOT = 0

CCSDS_OMM_VERS = 2.0
CREATION_DATE  = 
ORIGINATOR     = 

OBJECT_NAME    = 1998-067XU
OBJECT_ID      = 1998-067XU
CENTER_NAME    = EARTH
REF_FRAME      = TEME
TIME_SYSTEM    = UTC
MEAN_ELEMENT_THEORY = SGP/SGP4

EPOCH          = 2026-02-05T18:39:13.062528
MEAN_MOTION    = 15.61013242
ECCENTRICITY   = .00020347
INCLINATION    = 51.6270
RA_OF_ASC_NODE = 227.3086
ARG_OF_PERICENTER = 199.5208
MEAN_ANOMALY   = 160.5708

EPHEMERIS_TYPE = 0
CLASSIFICATION_TYPE = U
NORAD_CAT_ID   = 66908
ELEMENT_SET_NO = 999
REV_AT_EPOCH   = 1018
BSTAR          = .15278063E-2
MEAN_MOTION_DOT = .13258E-2
MEAN_MOTION_DDOT = 0

