RSP-03                  
1 65732U 98067XL  26036.85230192  .00764317  27253-3  16154-2 0  9999
2 65732  51.6174 211.1920 0006209 275.2495  84.7805 15.98194787 21875
YOTSUBA-KULOVER         
1 65941U 98067XN  26036.72229396  .00156224  00000+0  12468-2 0  9994
2 65941  51.6244 221.6848 0004119 232.1439 127.9186 15.70112599 18462
BOTAN                   
1 65942U 98067XP  26036.87431081  .00378529  00000+0  16889-2 0  9992
2 65942  51.6190 217.4098 0005660 259.2097 100.8268 15.82653618 18539
E-KAGAKU-1              
1 65943U 98067XQ  26036.78655566  .00154423  00000+0  12366-2 0  9990
2 65943  51.6264 221.3745 0003378 248.6455 111.4182 15.70041608 18472
HRC MONOBLOCK CAMERA    
1 66052U 98067XR  26036.93664100  .00059464  00000+0  75195-3 0  9992
2 66052  51.6280 225.3779 0000593 352.6283   7.4701 15.58940437 17434
HTV-X1                  
1 66174U 25241A   26036.88937857  .00013241  00000+0  25264-3 0  9992
2 66174  51.6315 229.5575 0011141  68.7050 291.5126 15.48424825   511
SZ-21 MODULE            
1 66515U 25246C   26036.38462474  .00044396  00000+0  42095-3 0  9995
2 66515  41.4761  41.8476 0003080 276.8900  83.1590 15.66107693 13005
SHENZHOU-22             
1 66645U 25272A   26036.96104746  .00033104  00000+0  41145-3 0  9997
2 66645  41.4677  41.0110 0005480   9.4748 350.6192 15.59269084267644
SOYUZ-MS 28             
1 66664U 25275A   26036.88937857  .00013241  00000+0  25264-3 0  9993
2 66664  51.6315 229.5575 0011141  68.7050 291.5126 15.48424825  1280
DUPLEX                  
1 66906U 98067XS  26036.84053024  .00044079  00000+0  67306-3 0  9998
2 66906  51.6287 228.4848 0001431  80.8466 279.2686 15.53978264 10174
1998-067XT              
1 66907U 98067XT  26036.77775358  .00130219  00000+0  15034-2 0  9994
2 66907  51.6265 227.3140 0002211 199.3308 160.7602 15.60974670 10180
1998-067XU              
1 66908U 98067XU  26036.77723452  .00132580  00000+0  15278-2 0  9996
2 66908  51.6270 227.3086 0002034 199.5208 160.5708 15.61013242 10185
